{"spkid": "20009856", "covariance": {"epoch": "2448622.5", "labels": ["e", "q", "tp", "node", "peri", "i"], "elements": [{"units": null, "value": ".6241479591923174", "title": "eccentricity", "name": "e", "sigma": 1.19558606309753e-08, "label": "e"}, {"name": "q", "sigma": 2.69310956796469e-08, "units": "au", "value": ".8442545092428483", "title": "perihelion distance", "label": "q"}, {"name": "tp", "sigma": 2.73340494895928e-06, "value": "2448466.220324028231", "title": "time of perihelion passage", "units": "TDB", "label": "tp"}, {"label": "node", "units": "deg", "title": "longitude of the ascending node", "value": "169.1668754213626", "name": "om", "sigma": 1.94031251844894e-05}, {"label": "peri", "sigma": 1.96099644563048e-05, "name": "w", "units": "deg", "title": "argument of perihelion", "value": "115.0700706635102"}, {"label": "i", "units": "deg", "title": "inclination", "value": "9.758803772520087", "sigma": 3.79746183866763e-06, "name": "i"}], "data": [["1.429426034273046E-16", "-3.219509308213757E-16", "-3.013504684025377E-15", "-5.610100044086746E-15", "-2.45573567249922E-14", "-2.394097212718997E-15"], ["-3.219509308213757E-16", "7.25283914506297E-16", "6.794762656684845E-15", "1.28409224137487E-14", "5.515891544822612E-14", "5.646248280158361E-15"], ["-3.013504684025377E-15", "6.794762656684845E-15", "7.471502614995068E-12", "-2.627087008169377E-11", "3.300929299100225E-11", "-2.525878699825096E-12"], ["-5.610100044086746E-15", "1.28409224137487E-14", "-2.627087008169377E-11", "3.764812669249667E-10", "-3.738348902414162E-10", "2.566391468746528E-11"], ["-2.45573567249922E-14", "5.515891544822612E-14", "3.300929299100225E-11", "-3.738348902414162E-10", "3.845507059775365E-10", "-2.50666044498825E-11"], ["-2.394097212718997E-15", "5.646248280158361E-15", "-2.525878699825096E-12", "2.566391468746528E-11", "-2.50666044498825E-11", "1.442071641613691E-11"]]}, "elements": [{"name": "e", "sigma": "1.2316E-8", "title": "eccentricity", "value": ".6253872584329812", "units": null, "label": "e"}, {"label": "a", "sigma": "1.5773E-9", "name": "a", "value": "2.243591562145471", "title": "semi-major axis", "units": "au"}, {"label": "q", "title": "perihelion distance", "value": ".8404779860519456", "units": "au", "name": "q", "sigma": "2.8103E-8"}, {"sigma": "3.801E-6", "name": "i", "title": "inclination; angle with respect to x-y ecliptic plane", "value": "9.828894877652109", "units": "deg", "label": "i"}, {"label": "node", "title": "longitude of the ascending node", "value": "168.0527821315966", "units": "deg", "name": "om", "sigma": "1.9238E-5"}, {"label": "peri", "name": "w", "sigma": "1.9443E-5", "units": "deg", "value": "116.2708411096343", "title": "argument of perihelion"}, {"label": "M", "units": "deg", "title": "mean anomaly", "value": "130.6540871990822", "name": "ma", "sigma": "3.2458E-6"}, {"label": "tp", "name": "tp", "sigma": "1.0644E-5", "units": "TDB", "title": "time of perihelion passage", "value": "2460755.013422526015"}, {"label": "period", "title": "sidereal orbital period", "value": "1227.479149934783", "units": "d", "sigma": "1.2945E-6", "name": "per"}, {"title": "mean motion", "value": ".2932840040656715", "units": "deg/d", "sigma": "3.0929E-10", "name": "n", "label": "n"}, {"sigma": "2.5638E-9", "name": "ad", "units": "au", "value": "3.646705138238997", "title": "aphelion distance", "label": "Q"}], "epoch": "2461200.5"}